{
  "type": "FeatureCollection",
  "features": [
    {
      "type": "Feature",
      "properties": {
        "norad_id": 35014,
        "name": "COSMOS 2251 DEB",
        "group": "cosmos-2251-debris",
        "lat": 27.61369855211253,
        "lon": 39.3336080350171,
        "alt_km": 647.6278888426014,
        "timestamp": "2025-12-19T06:59:44.302479+00:00",
        "meta_object_name": "COSMOS 2251 DEB",
        "meta_object_id": "1993-036AGB",
        "meta_epoch": "2025-12-17T09:17:45.359520",
        "meta_mean_motion": 14.75277506,
        "meta_eccentricity": 0.00070196,
        "meta_inclination": 73.9998,
        "meta_ra_of_asc_node": 34.4305,
        "meta_arg_of_pericenter": 212.3979,
        "meta_mean_anomaly": 147.6764,
        "meta_ephemeris_type": 0,
        "meta_classification_type": "U",
        "meta_norad_cat_id": 35014,
        "meta_element_set_no": 999,
        "meta_rev_at_epoch": 71405,
        "meta_bstar": 0.0010947042,
        "meta_mean_motion_dot": 7.39e-05,
        "meta_mean_motion_ddot": 0,
        "tle_line1": "1 35014U 93036AGB 25351.38733055  .00007390  00000+0  10947-2 0  9995",
        "tle_line2": "2 35014  73.9998  34.4305 0007019 212.3979 147.6764 14.75277506714055"
      },
      "geometry": {
        "type": "Point",
        "coordinates": [
          39.3336080350171,
          27.61369855211253
        ]
      }
    },
    {
      "type": "Feature",
      "properties": {
        "norad_id": 35015,
        "name": "COSMOS 2251 DEB",
        "group": "cosmos-2251-debris",
        "lat": 64.36559918459537,
        "lon": 5.550536222811922,
        "alt_km": 679.6225276251089,
        "timestamp": "2025-12-19T06:59:44.302489+00:00",
        "meta_object_name": "COSMOS 2251 DEB",
        "meta_object_id": "1993-036AGC",
        "meta_epoch": "2025-12-15T22:56:26.813760",
        "meta_mean_motion": 14.46895598,
        "meta_eccentricity": 0.0074243,
        "meta_inclination": 73.9481,
        "meta_ra_of_asc_node": 228.6843,
        "meta_arg_of_pericenter": 96.6585,
        "meta_mean_anomaly": 285.5342,
        "meta_ephemeris_type": 0,
        "meta_classification_type": "U",
        "meta_norad_cat_id": 35015,
        "meta_element_set_no": 999,
        "meta_rev_at_epoch": 65487,
        "meta_bstar": 0.00054698056,
        "meta_mean_motion_dot": 2.026e-05,
        "meta_mean_motion_ddot": 0,
        "tle_line1": "1 35015U 93036AGC 25349.95586590  .00002026  00000+0  54698-3 0  9999",
        "tle_line2": "2 35015  73.9481 228.6843 0074243  96.6585 285.5342 14.46895598654878"
      },
      "geometry": {
        "type": "Point",
        "coordinates": [
          5.550536222811922,
          64.36559918459537
        ]
      }
    },
    {
      "type": "Feature",
      "properties": {
        "norad_id": 35016,
        "name": "COSMOS 2251 DEB",
        "group": "cosmos-2251-debris",
        "lat": -32.1445046653884,
        "lon": 112.76810879582436,
        "alt_km": 701.7697992052008,
        "timestamp": "2025-12-19T06:59:44.302499+00:00",
        "meta_object_name": "COSMOS 2251 DEB",
        "meta_object_id": "1993-036AGD",
        "meta_epoch": "2025-12-18T14:06:05.266080",
        "meta_mean_motion": 14.35071452,
        "meta_eccentricity": 0.01142172,
        "meta_inclination": 73.9302,
        "meta_ra_of_asc_node": 283.6309,
        "meta_arg_of_pericenter": 199.3781,
        "meta_mean_anomaly": 338.5902,
        "meta_ephemeris_type": 0,
        "meta_classification_type": "U",
        "meta_norad_cat_id": 35016,
        "meta_element_set_no": 999,
        "meta_rev_at_epoch": 86866,
        "meta_bstar": 0.00022903399,
        "meta_mean_motion_dot": 6.75e-06,
        "meta_mean_motion_ddot": 0,
        "tle_line1": "1 35016U 93036AGD 25352.58756095  .00000675  00000+0  22903-3 0  9994",
        "tle_line2": "2 35016  73.9302 283.6309 0114217 199.3781 338.5902 14.35071452868662"
      },
      "geometry": {
        "type": "Point",
        "coordinates": [
          112.76810879582436,
          -32.1445046653884
        ]
      }
    },
    {
      "type": "Feature",
      "properties": {
        "norad_id": 35018,
        "name": "COSMOS 2251 DEB",
        "group": "cosmos-2251-debris",
        "lat": 24.844749741332727,
        "lon": -88.45295732911401,
        "alt_km": 1222.190539630643,
        "timestamp": "2025-12-19T06:59:44.302509+00:00",
        "meta_object_name": "COSMOS 2251 DEB",
        "meta_object_id": "1993-036AGF",
        "meta_epoch": "2025-12-17T17:22:46.408800",
        "meta_mean_motion": 13.67124195,
        "meta_eccentricity": 0.03487062,
        "meta_inclination": 73.976,
        "meta_ra_of_asc_node": 101.7737,
        "meta_arg_of_pericenter": 9.849,
        "meta_mean_anomaly": 350.9229,
        "meta_ephemeris_type": 0,
        "meta_classification_type": "U",
        "meta_norad_cat_id": 35018,
        "meta_element_set_no": 999,
        "meta_rev_at_epoch": 83254,
        "meta_bstar": 0.00069190439,
        "meta_mean_motion_dot": 8.6e-06,
        "meta_mean_motion_ddot": 0,
        "tle_line1": "1 35018U 93036AGF 25351.72414825  .00000860  00000+0  69190-3 0  9998",
        "tle_line2": "2 35018  73.9760 101.7737 0348706   9.8490 350.9229 13.67124195832546"
      },
      "geometry": {
        "type": "Point",
        "coordinates": [
          -88.45295732911401,
          24.844749741332727
        ]
      }
    },
    {
      "type": "Feature",
      "properties": {
        "norad_id": 35020,
        "name": "COSMOS 2251 DEB",
        "group": "cosmos-2251-debris",
        "lat": -57.72821655858712,
        "lon": 33.3344858732155,
        "alt_km": 655.8429553506712,
        "timestamp": "2025-12-19T06:59:44.302519+00:00",
        "meta_object_name": "COSMOS 2251 DEB",
        "meta_object_id": "1993-036AGH",
        "meta_epoch": "2025-12-16T23:43:20.938656",
        "meta_mean_motion": 14.62811627,
        "meta_eccentricity": 0.00912676,
        "meta_inclination": 74.046,
        "meta_ra_of_asc_node": 190.8083,
        "meta_arg_of_pericenter": 304.0673,
        "meta_mean_anomaly": 55.1854,
        "meta_ephemeris_type": 0,
        "meta_classification_type": "U",
        "meta_norad_cat_id": 35020,
        "meta_element_set_no": 999,
        "meta_rev_at_epoch": 88300,
        "meta_bstar": 0.00011860336,
        "meta_mean_motion_dot": 6.08e-06,
        "meta_mean_motion_ddot": 0,
        "tle_line1": "1 35020U 93036AGH 25350.98843679  .00000608  00000+0  11860-3 0  9992",
        "tle_line2": "2 35020  74.0460 190.8083 0091267 304.0673  55.1854 14.62811627883005"
      },
      "geometry": {
        "type": "Point",
        "coordinates": [
          33.3344858732155,
          -57.72821655858712
        ]
      }
    },
    {
      "type": "Feature",
      "properties": {
        "norad_id": 35022,
        "name": "COSMOS 2251 DEB",
        "group": "cosmos-2251-debris",
        "lat": -63.349607204029326,
        "lon": 164.20710738591907,
        "alt_km": 703.2943497858369,
        "timestamp": "2025-12-19T06:59:44.302530+00:00",
        "meta_object_name": "COSMOS 2251 DEB",
        "meta_object_id": "1993-036AGK",
        "meta_epoch": "2025-12-15T14:45:27.251136",
        "meta_mean_motion": 14.60846809,
        "meta_eccentricity": 0.00465822,
        "meta_inclination": 74.027,
        "meta_ra_of_asc_node": 316.4327,
        "meta_arg_of_pericenter": 155.4398,
        "meta_mean_anomaly": 204.9001,
        "meta_ephemeris_type": 0,
        "meta_classification_type": "U",
        "meta_norad_cat_id": 35022,
        "meta_element_set_no": 999,
        "meta_rev_at_epoch": 59185,
        "meta_bstar": 0.00033959453,
        "meta_mean_motion_dot": 1.655e-05,
        "meta_mean_motion_ddot": 0,
        "tle_line1": "1 35022U 93036AGK 25349.61489874  .00001655  00000+0  33959-3 0  9991",
        "tle_line2": "2 35022  74.0270 316.4327 0046582 155.4398 204.9001 14.60846809591850"
      },
      "geometry": {
        "type": "Point",
        "coordinates": [
          164.20710738591907,
          -63.349607204029326
        ]
      }
    },
    {
      "type": "Feature",
      "properties": {
        "norad_id": 35023,
        "name": "COSMOS 2251 DEB",
        "group": "cosmos-2251-debris",
        "lat": 26.83808291623208,
        "lon": 11.044015426637559,
        "alt_km": 593.295314256864,
        "timestamp": "2025-12-19T06:59:44.302539+00:00",
        "meta_object_name": "COSMOS 2251 DEB",
        "meta_object_id": "1993-036AGL",
        "meta_epoch": "2025-12-18T14:23:31.331616",
        "meta_mean_motion": 14.95273535,
        "meta_eccentricity": 0.00337897,
        "meta_inclination": 74.0365,
        "meta_ra_of_asc_node": 200.7668,
        "meta_arg_of_pericenter": 277.6727,
        "meta_mean_anomaly": 112.0597,
        "meta_ephemeris_type": 0,
        "meta_classification_type": "U",
        "meta_norad_cat_id": 35023,
        "meta_element_set_no": 999,
        "meta_rev_at_epoch": 88367,
        "meta_bstar": 0.0011370684,
        "meta_mean_motion_dot": 0.00012649,
        "meta_mean_motion_ddot": 0,
        "tle_line1": "1 35023U 93036AGL 25352.59966819  .00012649  00000+0  11371-2 0  9990",
        "tle_line2": "2 35023  74.0365 200.7668 0033789 277.6727 112.0597 14.95273535883678"
      },
      "geometry": {
        "type": "Point",
        "coordinates": [
          11.044015426637559,
          26.83808291623208
        ]
      }
    }
  ]
}